[{"OBJECT_NAME":"STARLINK-1954","OBJECT_ID":"2021-009H","EPOCH":"2026-03-09T23:20:25.352160","MEAN_MOTION":15.30849174,"ECCENTRICITY":0.00046184,"INCLINATION":53.0574,"RA_OF_ASC_NODE":8.8654,"ARG_OF_PERICENTER":103.3293,"MEAN_ANOMALY":256.8222,"EPHEMERIS_TYPE":0,"CLASSIFICATION_TYPE":"U","NORAD_CAT_ID":47555,"ELEMENT_SET_NO":999,"REV_AT_EPOCH":28100,"BSTAR":0.0022371791,"MEAN_MOTION_DOT":0.00067883,"MEAN_MOTION_DDOT":0},{"OBJECT_NAME":"STARLINK-31626","OBJECT_ID":"2024-062U","EPOCH":"2026-03-09T19:44:59.670240","MEAN_MOTION":15.30188131,"ECCENTRICITY":0.00011259,"INCLINATION":53.1591,"RA_OF_ASC_NODE":254.913,"ARG_OF_PERICENTER":104.6706,"MEAN_ANOMALY":255.4419,"EPHEMERIS_TYPE":0,"CLASSIFICATION_TYPE":"U","NORAD_CAT_ID":59392,"ELEMENT_SET_NO":999,"REV_AT_EPOCH":10969,"BSTAR":-1.39835e-6,"MEAN_MOTION_DOT":-4.0e-6,"MEAN_MOTION_DDOT":0}]
